      2.10          N: GNSS NAV DATA                        RINEX VERSION / TYPE
fic2rin                                 11/05/2018 00:21:26 PGM / RUN BY / DATE
                                                            END OF HEADER
16 18 11  5  0  0  0.0 6.072223186493e-07-2.046363078989e-12 0.000000000000e+00
    3.900000000000e+01-7.459375000000e+01 4.180888436499e-09-8.635553956456e-01
   -3.915280103683e-06 1.011030282825e-02 6.543472409248e-06 5.153718675613e+03
    8.640000000000e+04 2.011656761169e-07-1.360642456883e+00 1.080334186554e-07
    9.851584626386e-01 2.652187500000e+02 5.202280758046e-01-8.052121117451e-09
   -5.514515415988e-10 1.000000000000e+00 2.026000000000e+03 0.000000000000e+00
    2.400000000000e+00 0.000000000000e+00-1.071020960808e-08 3.900000000000e+01
    7.920600000000e+04 4.000000000000e+00
18 18 11  5  0  0  0.0 7.585389539599e-05 4.092726157978e-12 0.000000000000e+00
    2.100000000000e+01 5.306250000000e+01 4.872702967637e-09 2.050292798765e+00
    2.508983016014e-06 1.496592466719e-02 5.267560482025e-06 5.153615447998e+03
    8.640000000000e+04 2.067536115646e-07 6.036966705952e-01-2.961605787277e-07
    9.515839543656e-01 2.701562500000e+02 1.361689441019e+00-8.269987335310e-09
    4.914490422538e-10 1.000000000000e+00 2.026000000000e+03 0.000000000000e+00
    2.400000000000e+00 0.000000000000e+00-6.519258022308e-09 2.100000000000e+01
    7.920600000000e+04 4.000000000000e+00
12 18 11  5  0  0  0.0 2.945838496089e-04-2.842170943040e-12 0.000000000000e+00
    3.500000000000e+01-7.825000000000e+01 4.261963242162e-09 1.011997513210e+00
   -4.110857844353e-06 7.059359923005e-03 5.843117833138e-06 5.153747661591e+03
    8.640000000000e+04-9.313225746155e-08-1.379561523521e+00 3.725290298462e-09
    9.847552897305e-01 2.810000000000e+02 1.023035335448e+00-8.171054642938e-09
   -5.860958418158e-10 1.000000000000e+00 2.026000000000e+03 0.000000000000e+00
    2.400000000000e+00 0.000000000000e+00-1.257285475731e-08 3.500000000000e+01
    7.920600000000e+04 4.000000000000e+00
20 18 11  5  0  0  0.0 5.182609893382e-04 5.684341886081e-13 0.000000000000e+00
    3.400000000000e+01-6.562500000000e+01 5.542016561521e-09 2.102967007486e+00
   -3.427267074585e-06 4.433320369571e-03 4.788860678673e-06 5.153671117783e+03
    8.640000000000e+04 3.539025783539e-08 1.582484783312e+00-7.450580596924e-09
    9.288572967148e-01 2.693437500000e+02 2.151094418540e+00-8.669646839876e-09
   -3.203704875739e-10 1.000000000000e+00 2.026000000000e+03 0.000000000000e+00
    2.400000000000e+00 0.000000000000e+00-8.381903171539e-09 3.400000000000e+01
    7.920600000000e+04 4.000000000000e+00
24 18 11  5  0  0  0.0-5.774246528745e-05-5.684341886081e-13 0.000000000000e+00
    9.300000000000e+01 9.812500000000e+01 5.297006355862e-09 2.651700409257e+00
    5.066394805908e-06 7.560975500382e-03 5.474314093590e-06 5.153619646072e+03
    8.640000000000e+04-1.415610313416e-07-2.538583943628e+00-1.136213541031e-07
    9.404483345909e-01 2.624062500000e+02 5.427212795254e-01-8.469995666460e-09
    4.275178078327e-10 1.000000000000e+00 2.026000000000e+03 0.000000000000e+00
    2.400000000000e+00 0.000000000000e+00 2.793967723846e-09 9.300000000000e+01
    7.920600000000e+04 4.000000000000e+00
14 18 11  5  0  0  0.0-9.612413123250e-05 3.410605131648e-13 0.000000000000e+00
    8.000000000000e+01 4.825000000000e+01 4.276606709264e-09-2.080548627636e+00
    2.466142177582e-06 9.996006498113e-03 1.254491508007e-05 5.153649559021e+03
    8.640000000000e+04 1.396983861923e-07 2.821578501590e+00-5.587935447693e-09
    9.611805462850e-01 1.352500000000e+02-1.944293495423e+00-7.691034648178e-09
    1.628639267934e-10 1.000000000000e+00 2.026000000000e+03 0.000000000000e+00
    2.400000000000e+00 0.000000000000e+00-9.778887033463e-09 8.000000000000e+01
    7.920600000000e+04 4.000000000000e+00
15 18 11  5  0  0  0.0-3.408682532609e-04 1.250555214938e-12 0.000000000000e+00
    7.000000000000e+01-4.468750000000e+00 5.006637117961e-09-2.727479230755e+00
   -4.805624485016e-07 1.098484592512e-02 1.310929656029e-05 5.153596046448e+03
    8.640000000000e+04 5.215406417847e-08 2.655723559786e+00-2.030283212662e-07
    9.284341944737e-01 1.100000000000e+02 7.265103988514e-01-8.050335328780e-09
    1.607209803882e-11 1.000000000000e+00 2.026000000000e+03 0.000000000000e+00
    2.400000000000e+00 0.000000000000e+00-1.117587089539e-08 7.000000000000e+01
    7.920600000000e+04 4.000000000000e+00
10 18 11  5  0  0  0.0 1.678369008005e-04-4.092726157978e-12 0.000000000000e+00
    8.200000000000e+01-6.628125000000e+01 4.733768609035e-09 3.082980946074e-01
   -3.449618816376e-06 3.940080408938e-03 6.165355443954e-06 5.153663354874e+03
    8.640000000000e+04-1.862645149231e-09 1.694078747671e+00 5.215406417847e-08
    9.614279447501e-01 2.612187500000e+02-2.818169601104e+00-8.323203837706e-09
   -3.603721538038e-10 1.000000000000e+00 2.026000000000e+03 0.000000000000e+00
    2.400000000000e+00 0.000000000000e+00 1.862645149231e-09 8.200000000000e+01
    7.920600000000e+04 4.000000000000e+00
 9 18 11  5  0  0  0.0 4.951702430844e-04-3.069544618484e-12 0.000000000000e+00
    4.400000000000e+01 2.728125000000e+01 4.515545233441e-09-1.352820643530e+00
    1.493841409683e-06 1.320734270848e-03 1.368671655655e-05 5.153803098679e+03
    8.640000000000e+04 2.421438694000e-08 2.730488649275e+00 4.284083843231e-08
    9.529628863179e-01 1.145000000000e+02 1.673130745320e+00-7.951045478673e-09
    9.071806448581e-11 1.000000000000e+00 2.026000000000e+03 0.000000000000e+00
    2.400000000000e+00 0.000000000000e+00 1.396983861923e-09 4.400000000000e+01
    7.920600000000e+04 4.000000000000e+00
23 18 11  5  0  0  0.0-2.070246264338e-04 9.094947017729e-13 0.000000000000e+00
    9.100000000000e+01 3.318750000000e+01 4.569833209039e-09 3.064193310922e+00
    1.564621925354e-06 1.261716964655e-02 1.380033791065e-05 5.153714017868e+03
    8.640000000000e+04 1.490116119385e-08 2.727337335016e+00-1.452863216400e-07
    9.437735517738e-01 1.054062500000e+02-2.320880086634e+00-7.797824810703e-09
    7.857470152314e-11 1.000000000000e+00 2.026000000000e+03 0.000000000000e+00
    2.400000000000e+00 0.000000000000e+00-2.002343535423e-08 9.100000000000e+01
    7.920600000000e+04 4.000000000000e+00
32 18 11  5  0  0  0.0-3.688856959343e-04 1.364242052659e-11 0.000000000000e+00
    7.100000000000e+01 2.187500000000e+01 4.383396871789e-09-1.050850221135e+00
    1.182779669762e-06 2.309179864824e-03 1.277029514313e-05 5.153730178833e+03
    8.640000000000e+04 4.470348358154e-08 2.736226531435e+00-3.725290298462e-09
    9.572929336532e-01 1.320625000000e+02-2.594221431896e+00-7.885685613315e-09
    3.035840740667e-11 1.000000000000e+00 2.026000000000e+03 0.000000000000e+00
    2.400000000000e+00 0.000000000000e+00 4.656612873077e-10 7.100000000000e+01
    7.920600000000e+04 4.000000000000e+00
26 18 11  5  0  0  0.0 2.991035580635e-05 1.114131009672e-11 0.000000000000e+00
    7.800000000000e+01-7.634375000000e+01 4.950563353692e-09 9.199955183061e-02
   -4.125759005547e-06 3.133593825623e-03 4.801899194717e-06 5.153743545532e+03
    8.640000000000e+04-7.450580596924e-09-1.466251838429e+00 4.284083843231e-08
    9.537057883027e-01 2.813750000000e+02 4.437440444063e-02-8.491782288246e-09
   -5.421654405097e-10 1.000000000000e+00 2.026000000000e+03 0.000000000000e+00
    2.400000000000e+00 0.000000000000e+00 7.450580596924e-09 7.800000000000e+01
    7.920600000000e+04 4.000000000000e+00
31 18 11  5  0  0  0.0 8.193496614695e-05-2.614797267597e-12 0.000000000000e+00
    4.100000000000e+01 8.481250000000e+01 4.911633160665e-09 1.365095749214e+00
    4.626810550690e-06 9.034479735419e-03 4.176050424576e-06 5.153773630142e+03
    8.640000000000e+04 9.313225746155e-08-2.462884347922e+00 9.126961231232e-08
    9.618883689572e-01 2.961875000000e+02-8.677909501763e-02-8.459280934434e-09
    1.646497154644e-10 1.000000000000e+00 2.026000000000e+03 0.000000000000e+00
    2.400000000000e+00 0.000000000000e+00-1.350417733192e-08 4.100000000000e+01
    7.920600000000e+04 4.000000000000e+00
29 18 11  5  0  0  0.0 3.428361378610e-04-7.844391802792e-12 0.000000000000e+00
    3.400000000000e+01-6.218750000000e+00 3.669795718865e-09-1.284349125633e+00
   -3.837049007416e-07 6.782294949517e-04 1.248717308044e-05 5.153614044189e+03
    8.640000000000e+04 1.303851604462e-08-3.351740077885e-01 7.450580596924e-09
    9.851869705232e-01 1.521875000000e+02 1.668069925054e+00-7.596030690882e-09
    6.785996949726e-11 1.000000000000e+00 2.026000000000e+03 0.000000000000e+00
    2.400000000000e+00 0.000000000000e+00-1.024454832077e-08 3.400000000000e+01
    7.920600000000e+04 4.000000000000e+00
28 18 11  5  0  0  0.0 7.530716247857e-04 1.705302565824e-12 0.000000000000e+00
    2.800000000000e+01-7.725000000000e+01 4.368039089218e-09-9.296729262090e-01
   -3.935769200325e-06 1.964647858404e-02 6.826594471931e-06 5.153689006805e+03
    8.640000000000e+04-2.775341272354e-07-1.356526124324e+00 9.313225746155e-08
    9.840633426453e-01 2.636562500000e+02-1.503626424167e+00-8.436065681712e-09
   -5.468084910542e-10 1.000000000000e+00 2.026000000000e+03 0.000000000000e+00
    2.400000000000e+00 0.000000000000e+00-1.117587089539e-08 2.800000000000e+01
    7.920600000000e+04 4.000000000000e+00
30 18 11  5  0  0  0.0 2.561137080193e-08-5.684341886081e-12 0.000000000000e+00
    8.700000000000e+01 7.940625000000e+01 5.466299121871e-09 1.609196344961e+00
    4.224479198456e-06 3.578050993383e-03 4.218891263008e-06 5.153664897919e+03
    8.640000000000e+04 3.911554813385e-08-2.444879150116e+00 4.097819328308e-08
    9.428046040761e-01 2.890312500000e+02-2.976082844882e+00-8.762507850767e-09
    3.139416483584e-10 1.000000000000e+00 2.026000000000e+03 0.000000000000e+00
    2.400000000000e+00 0.000000000000e+00 3.725290298462e-09 8.700000000000e+01
    7.920600000000e+04 4.000000000000e+00
